start=new Date('2023-02-26T00:00:00.000Z').valueOf();
sats=[{"TIME_SYSTEM":"UTC","DECAY_DATE":null,"MEAN_ELEMENT_THEORY":"SGP4","MEAN_MOTION":"15.01266645","MEAN_MOTION_DOT":"0.00011343","ELEMENT_SET_NO":"999","NORAD_CAT_ID":"53201","SEMIMAJOR_AXIS":"6941.126","PERIOD":"95.919","MEAN_ANOMALY":"122.0167","REV_AT_EPOCH":"3309","INCLINATION":"97.6568","EPHEMERIS_TYPE":"0","ECCENTRICITY":"0.00012070","BSTAR":"0.00088618000000","RA_OF_ASC_NODE":"119.4522","OBJECT_TYPE":"PAYLOAD","OBJECT_NAME":"STARLINK-4405","MEAN_MOTION_DDOT":"0.0000000000000","SITE":"AFWTR","ARG_OF_PERICENTER":"238.0940","APOAPSIS":"563.829","COUNTRY_CODE":"US","EPOCH":"2023-02-25T19:12:14.589504","TLE_LINE1":"1 53201U 22084N   23056.80016886  .00011343  00000-0  88618-3 0  9996","CLASSIFICATION_TYPE":"U","FILE":"3839003","RCS_SIZE":"LARGE","LAUNCH_DATE":"2022-07-22","GP_ID":"226913442","CENTER_NAME":"EARTH","OBJECT_ID":"2022-084N","REF_FRAME":"TEME","PERIAPSIS":"562.154","TLE_LINE2":"2 53201  97.6568 119.4522 0001207 238.0940 122.0167 15.01266645 33094"},{"MEAN_ELEMENT_THEORY":"SGP4","DECAY_DATE":null,"TIME_SYSTEM":"UTC","NORAD_CAT_ID":"53202","SEMIMAJOR_AXIS":"6943.625","ELEMENT_SET_NO":"999","MEAN_MOTION_DOT":"0.00007608","MEAN_MOTION":"15.00456527","MEAN_ANOMALY":"262.8338","PERIOD":"95.971","INCLINATION":"97.6566","REV_AT_EPOCH":"3312","OBJECT_TYPE":"PAYLOAD","RA_OF_ASC_NODE":"119.7790","BSTAR":"0.00060889000000","EPHEMERIS_TYPE":"0","ECCENTRICITY":"0.00027110","ARG_OF_PERICENTER":"97.3194","MEAN_MOTION_DDOT":"0.0000000000000","SITE":"AFWTR","OBJECT_NAME":"STARLINK-4411","APOAPSIS":"567.372","EPOCH":"2023-02-25T21:50:50.183520","COUNTRY_CODE":"US","TLE_LINE1":"1 53202U 22084P   23056.91030305  .00007608  00000-0  60889-3 0  9990","FILE":"3839003","CLASSIFICATION_TYPE":"U","GP_ID":"226913692","LAUNCH_DATE":"2022-07-22","RCS_SIZE":"MEDIUM","OBJECT_ID":"2022-084P","CENTER_NAME":"EARTH","PERIAPSIS":"563.607","REF_FRAME":"TEME","TLE_LINE2":"2 53202  97.6566 119.7790 0002711  97.3194 262.8338 15.00456527 33127"},{"RCS_SIZE":"LARGE","GP_ID":"226914441","LAUNCH_DATE":"2022-07-22","CENTER_NAME":"EARTH","OBJECT_ID":"2022-084Q","PERIAPSIS":"562.813","REF_FRAME":"TEME","TLE_LINE2":"2 53203  97.6572 119.5811 0000245 209.3197 150.8014 15.01269461 33111","EPOCH":"2023-02-25T22:18:52.214400","COUNTRY_CODE":"US","TLE_LINE1":"1 53203U 22084Q   23056.92977100  .00008750  00000-0  68484-3 0  9993","FILE":"3839003","CLASSIFICATION_TYPE":"U","ECCENTRICITY":"0.00002450","EPHEMERIS_TYPE":"0","RA_OF_ASC_NODE":"119.5811","OBJECT_TYPE":"PAYLOAD","BSTAR":"0.00068484000000","OBJECT_NAME":"STARLINK-4409","ARG_OF_PERICENTER":"209.3197","MEAN_MOTION_DDOT":"0.0000000000000","SITE":"AFWTR","APOAPSIS":"563.153","DECAY_DATE":null,"TIME_SYSTEM":"UTC","MEAN_ELEMENT_THEORY":"SGP4","MEAN_MOTION_DOT":"0.00008750","MEAN_MOTION":"15.01269461","SEMIMAJOR_AXIS":"6941.118","NORAD_CAT_ID":"53203","ELEMENT_SET_NO":"999","PERIOD":"95.919","MEAN_ANOMALY":"150.8014","REV_AT_EPOCH":"3311","INCLINATION":"97.6572"},{"APOAPSIS":"564.352","BSTAR":"0.00013643000000","RA_OF_ASC_NODE":"119.3886","OBJECT_TYPE":"PAYLOAD","ECCENTRICITY":"0.00019250","EPHEMERIS_TYPE":"0","SITE":"AFWTR","MEAN_MOTION_DDOT":"0.0000000000000","ARG_OF_PERICENTER":"236.8029","OBJECT_NAME":"STARLINK-4410","MEAN_ANOMALY":"123.3011","PERIOD":"95.920","INCLINATION":"97.6573","REV_AT_EPOCH":"3374","MEAN_ELEMENT_THEORY":"SGP4","TIME_SYSTEM":"UTC","DECAY_DATE":null,"ELEMENT_SET_NO":"999","NORAD_CAT_ID":"53204","SEMIMAJOR_AXIS":"6941.151","MEAN_MOTION":"15.01258761","MEAN_MOTION_DOT":"0.00001694","REF_FRAME":"TEME","PERIAPSIS":"561.679","TLE_LINE2":"2 53204  97.6573 119.3886 0001925 236.8029 123.3011 15.01258761 33740","LAUNCH_DATE":"2022-07-22","GP_ID":"226915188","RCS_SIZE":"LARGE","OBJECT_ID":"2022-084R","CENTER_NAME":"EARTH","CLASSIFICATION_TYPE":"U","FILE":"3839003","COUNTRY_CODE":"US","EPOCH":"2023-02-25T17:38:55.514400","TLE_LINE1":"1 53204U 22084R   23056.73536475  .00001694  00000-0  13643-3 0  9996"},{"EPOCH":"2023-02-25T22:13:32.346048","COUNTRY_CODE":"US","TLE_LINE1":"1 53205U 22084S   23056.92606882  .00000575  00000-0  49316-4 0  9992","CLASSIFICATION_TYPE":"U","FILE":"3839003","RCS_SIZE":"LARGE","GP_ID":"226913943","LAUNCH_DATE":"2022-07-22","CENTER_NAME":"EARTH","OBJECT_ID":"2022-084S","PERIAPSIS":"562.561","REF_FRAME":"TEME","TLE_LINE2":"2 53205  97.6599 119.5823 0000621 125.6171 234.5111 15.01266576 33117","TIME_SYSTEM":"UTC","DECAY_DATE":null,"MEAN_ELEMENT_THEORY":"SGP4","MEAN_MOTION_DOT":"0.00000575","MEAN_MOTION":"15.01266576","NORAD_CAT_ID":"53205","SEMIMAJOR_AXIS":"6941.127","ELEMENT_SET_NO":"999","PERIOD":"95.919","MEAN_ANOMALY":"234.5111","REV_AT_EPOCH":"3311","INCLINATION":"97.6599","EPHEMERIS_TYPE":"0","ECCENTRICITY":"0.00006210","OBJECT_TYPE":"PAYLOAD","RA_OF_ASC_NODE":"119.5823","BSTAR":"0.00004931600000","OBJECT_NAME":"STARLINK-4397","ARG_OF_PERICENTER":"125.6171","SITE":"AFWTR","MEAN_MOTION_DDOT":"0.0000000000000","APOAPSIS":"563.423"},{"FILE":"3839003","CLASSIFICATION_TYPE":"U","TLE_LINE1":"1 53206U 22084T   23056.93001706 -.00000235  00000-0 -13681-4 0  9999","COUNTRY_CODE":"US","EPOCH":"2023-02-25T22:19:13.473984","TLE_LINE2":"2 53206  97.6583 119.5804 0000227 199.3225 160.7991 15.01265436 33110","REF_FRAME":"TEME","PERIAPSIS":"562.838","CENTER_NAME":"EARTH","OBJECT_ID":"2022-084T","RCS_SIZE":"LARGE","LAUNCH_DATE":"2022-07-22","GP_ID":"226914193","REV_AT_EPOCH":"3311","INCLINATION":"97.6583","PERIOD":"95.919","MEAN_ANOMALY":"160.7991","MEAN_MOTION":"15.01265436","MEAN_MOTION_DOT":"-0.00000235","ELEMENT_SET_NO":"999","NORAD_CAT_ID":"53206","SEMIMAJOR_AXIS":"6941.130","DECAY_DATE":null,"TIME_SYSTEM":"UTC","MEAN_ELEMENT_THEORY":"SGP4","APOAPSIS":"563.153","OBJECT_NAME":"STARLINK-4408","SITE":"AFWTR","MEAN_MOTION_DDOT":"0.0000000000000","ARG_OF_PERICENTER":"199.3225","EPHEMERIS_TYPE":"0","ECCENTRICITY":"0.00002270","BSTAR":"-0.00001368100000","RA_OF_ASC_NODE":"119.5804","OBJECT_TYPE":"PAYLOAD"},{"OBJECT_NAME":"STARLINK-4413","ARG_OF_PERICENTER":"110.1930","MEAN_MOTION_DDOT":"0.0000000000000","SITE":"AFWTR","EPHEMERIS_TYPE":"0","ECCENTRICITY":"0.00016790","RA_OF_ASC_NODE":"119.3868","OBJECT_TYPE":"PAYLOAD","BSTAR":"-0.00003559000000","APOAPSIS":"564.150","MEAN_MOTION_DOT":"-0.00000516","MEAN_MOTION":"15.01268753","NORAD_CAT_ID":"53207","SEMIMAJOR_AXIS":"6941.120","ELEMENT_SET_NO":"999","DECAY_DATE":null,"TIME_SYSTEM":"UTC","MEAN_ELEMENT_THEORY":"SGP4","REV_AT_EPOCH":"3308","INCLINATION":"97.6605","PERIOD":"95.919","MEAN_ANOMALY":"249.9475","CENTER_NAME":"EARTH","OBJECT_ID":"2022-084U","RCS_SIZE":"LARGE","GP_ID":"226914941","LAUNCH_DATE":"2022-07-22","TLE_LINE2":"2 53207  97.6605 119.3868 0001679 110.1930 249.9475 15.01268753 33088","PERIAPSIS":"561.819","REF_FRAME":"TEME","TLE_LINE1":"1 53207U 22084U   23056.72426493 -.00000516  00000-0 -35590-4 0  9996","EPOCH":"2023-02-25T17:22:56.489952","COUNTRY_CODE":"US","FILE":"3839003","CLASSIFICATION_TYPE":"U"},{"OBJECT_ID":"2022-084V","CENTER_NAME":"EARTH","LAUNCH_DATE":"2022-07-22","GP_ID":"226914689","RCS_SIZE":"LARGE","TLE_LINE2":"2 53208  97.6583 119.3849 0001094 226.5883 133.5250 15.01267709 33082","REF_FRAME":"TEME","PERIAPSIS":"562.229","TLE_LINE1":"1 53208U 22084V   23056.73166433 -.00000528  00000-0 -36543-4 0  9995","COUNTRY_CODE":"US","EPOCH":"2023-02-25T17:33:35.798112","FILE":"3839003","CLASSIFICATION_TYPE":"U","MEAN_MOTION_DDOT":"0.0000000000000","SITE":"AFWTR","ARG_OF_PERICENTER":"226.5883","OBJECT_NAME":"STARLINK-4425","BSTAR":"-0.00003654300000","RA_OF_ASC_NODE":"119.3849","OBJECT_TYPE":"PAYLOAD","ECCENTRICITY":"0.00010940","EPHEMERIS_TYPE":"0","APOAPSIS":"563.747","ELEMENT_SET_NO":"999","SEMIMAJOR_AXIS":"6941.123","NORAD_CAT_ID":"53208","MEAN_MOTION":"15.01267709","MEAN_MOTION_DOT":"-0.00000528","MEAN_ELEMENT_THEORY":"SGP4","TIME_SYSTEM":"UTC","DECAY_DATE":null,"INCLINATION":"97.6583","REV_AT_EPOCH":"3308","MEAN_ANOMALY":"133.5250","PERIOD":"95.919"},{"TLE_LINE1":"1 53209U 22084W   23056.92261368  .00002563  00000-0  20405-3 0  9998","COUNTRY_CODE":"US","EPOCH":"2023-02-25T22:08:33.821952","CLASSIFICATION_TYPE":"U","FILE":"3839003","OBJECT_ID":"2022-084W","CENTER_NAME":"EARTH","LAUNCH_DATE":"2022-07-22","GP_ID":"226913443","RCS_SIZE":"LARGE","TLE_LINE2":"2 53209  97.6596 119.5839 0001690 101.7923 258.3491 15.01268754 33117","REF_FRAME":"TEME","PERIAPSIS":"561.812","ELEMENT_SET_NO":"999","SEMIMAJOR_AXIS":"6941.120","NORAD_CAT_ID":"53209","MEAN_MOTION":"15.01268754","MEAN_MOTION_DOT":"0.00002563","MEAN_ELEMENT_THEORY":"SGP4","DECAY_DATE":null,"TIME_SYSTEM":"UTC","INCLINATION":"97.6596","REV_AT_EPOCH":"3311","MEAN_ANOMALY":"258.3491","PERIOD":"95.919","SITE":"AFWTR","MEAN_MOTION_DDOT":"0.0000000000000","ARG_OF_PERICENTER":"101.7923","OBJECT_NAME":"STARLINK-4423","BSTAR":"0.00020405000000","RA_OF_ASC_NODE":"119.5839","OBJECT_TYPE":"PAYLOAD","ECCENTRICITY":"0.00016900","EPHEMERIS_TYPE":"0","APOAPSIS":"564.158"},{"APOAPSIS":"563.344","OBJECT_NAME":"STARLINK-4427","SITE":"AFWTR","MEAN_MOTION_DDOT":"0.0000000000000","ARG_OF_PERICENTER":"161.9949","ECCENTRICITY":"0.00005060","EPHEMERIS_TYPE":"0","BSTAR":"0.00002831700000","RA_OF_ASC_NODE":"119.3850","OBJECT_TYPE":"PAYLOAD","REV_AT_EPOCH":"3362","INCLINATION":"97.6590","PERIOD":"95.919","MEAN_ANOMALY":"198.1293","MEAN_MOTION":"15.01266114","MEAN_MOTION_DOT":"0.00000305","ELEMENT_SET_NO":"999","NORAD_CAT_ID":"53210","SEMIMAJOR_AXIS":"6941.128","DECAY_DATE":null,"TIME_SYSTEM":"UTC","MEAN_ELEMENT_THEORY":"SGP4","TLE_LINE2":"2 53210  97.6590 119.3850 0000506 161.9949 198.1293 15.01266114 33620","REF_FRAME":"TEME","PERIAPSIS":"562.642","CENTER_NAME":"EARTH","OBJECT_ID":"2022-084X","RCS_SIZE":"LARGE","LAUNCH_DATE":"2022-07-22","GP_ID":"226913693","FILE":"3839003","CLASSIFICATION_TYPE":"U","TLE_LINE1":"1 53210U 22084X   23056.72796484  .00000305  00000-0  28317-4 0  9993","COUNTRY_CODE":"US","EPOCH":"2023-02-25T17:28:16.162176"}];
